STARLINK-1544           
1 46031U 20055E   23223.72609123  .00000946  00000+0  82359-4 0  9997
2 46031  53.0559  30.7566 0001212  91.1481 268.9647 15.06414090166555
STARLINK-1555           
1 46032U 20055F   23223.75653157  .00020057  00000+0  13607-2 0  9990
2 46032  53.0547  30.6303 0001331  87.0407 273.0734 15.06423975166551
STARLINK-1556           
1 46033U 20055G   23223.73810008  .00021294  00000+0  14429-2 0  9996
2 46033  53.0543  30.7143 0001244  78.0504 282.0624 15.06430994166559
STARLINK-1557           
1 46034U 20055H   23223.74179047  .00018668  00000+0  12680-2 0  9997
2 46034  53.0552  30.6950 0001206  82.7684 277.3442 15.06424246166552
STARLINK-1558           
1 46035U 20055J   23223.74916006  .00021364  00000+0  14478-2 0  9996
2 46035  53.0549  30.6656 0001227  82.8463 277.2666 15.06425672166552
STARLINK-1560           
1 46036U 20055K   23223.73441106  .00021752  00000+0  14735-2 0  9997
2 46036  53.0543  30.7346 0001045  79.2675 280.8432 15.06430155166550
STARLINK-1565           
1 46037U 20055L   23223.73073405  .00020432  00000+0  13858-2 0  9990
2 46037  53.0546  30.7452 0001374  86.0115 274.1031 15.06421752166556
STARLINK-1567           
1 46038U 20055M   23223.87816579  .00022244  00000+0  15065-2 0  9998
2 46038  53.0545  30.0868 0001015  82.3867 277.7237 15.06424979166578
STARLINK-1569           
1 46039U 20055N   23223.88553331  .00021772  00000+0  14747-2 0  9995
2 46039  53.0547  30.0535 0001008  76.0777 284.0324 15.06432572166570
STARLINK-1576           
1 46040U 20055P   23223.71598655  .00009280  00000+0  64091-3 0  9995
2 46040  53.0546  30.8104 0000828  83.0391 277.0692 15.06406945166553
STARLINK-1580           
1 46041U 20055Q   23223.92610008  .00016445  00000+0  11196-2 0  9994
2 46041  53.0536  29.9561 0001302  82.2952 277.8185 15.06423351166589
STARLINK-1581           
1 46042U 20055R   23223.76758733  .00027029  00000+0  18256-2 0  9999
2 46042  53.0551  30.5821 0001176  76.0035 284.1084 15.06419012166562
STARLINK-1582           
1 46043U 20055S   23222.76501871  .00017445  00000+0  11874-2 0  9998
2 46043  53.0544  35.0835 0001191  96.0416 264.0709 15.06392324166402
STARLINK-1584           
1 46044U 20055T   23223.84035918  .00016210  00000+0  11040-2 0  9997
2 46044  53.0543  30.2412 0001124  66.0983 294.0124 15.06420277166573
STARLINK-1591           
1 46045U 20055U   23223.18890783  .00018276  00000+0  12427-2 0  9998
2 46045  53.0551  33.1769 0001288  85.1439 274.9697 15.06398319166471
STARLINK-1524           
1 46047U 20055W   23223.87171122  .00016592  00000+0  11294-2 0  9995
2 46047  53.0551  20.1134 0000928  84.9323 275.1772 15.06423751166717
STARLINK-1527           
1 46048U 20055X   23222.74014037  .00017668  00000+0  12025-2 0  9990
2 46048  53.0547  25.1932 0001134  88.6451 271.4668 15.06386483166541
STARLINK-1530           
1 46049U 20055Y   23223.73165062  .00016851  00000+0  11467-2 0  9998
2 46049  53.0549  20.7442 0001173  85.1431 274.9692 15.06424220166675
STARLINK-1540           
1 46051U 20055AA  23223.70215841  .00021533  00000+0  14591-2 0  9993
2 46051  53.0547  20.8752 0001259  79.4704 280.6427 15.06424347166697
STARLINK-1541           
1 46052U 20055AB  23223.75376397  .00021144  00000+0  14332-2 0  9994
2 46052  53.0550  20.6441 0001405  95.3606 264.7544 15.06423493166690
STARLINK-1543           
1 46053U 20055AC  23223.42572755  .00019256  00000+0  13078-2 0  9992
2 46053  53.0556  22.1151 0001264  86.2268 273.8865 15.06408892166646
STARLINK-1548           
1 46054U 20055AD  23223.83116545  .00019887  00000+0  13493-2 0  9990
2 46054  53.0549  20.2951 0001157  84.0247 276.0873 15.06425212166683
STARLINK-1554           
1 46055U 20055AE  23223.75007875  .00006603  00000+0  46154-3 0  9990
2 46055  53.0551  20.6625 0000917  98.6572 261.4521 15.06414342166673
STARLINK-1561           
1 46056U 20055AF  23223.56963380  .00003834  00000+0  27390-4 0  9997
2 46056  53.0368 324.8089 0001096  80.9723 279.1420 15.76748725167435
STARLINK-1564           
1 46058U 20055AH  23223.18614074  .00021086  00000+0  14301-2 0  9995
2 46058  53.0545  23.1941 0001288  83.3532 276.7604 15.06403370166598
STARLINK-1570           
1 46059U 20055AJ  23223.72427461  .00021627  00000+0  14654-2 0  9990
2 46059  53.0557  20.7775 0000976  79.1957 280.9142 15.06424063166672
STARLINK-1572           
1 46060U 20055AK  23223.72058818  .00017663  00000+0  12002-2 0  9998
2 46060  53.0548  20.7928 0001273  74.0951 286.0178 15.06447414166674
STARLINK-1573           
1 46061U 20055AL  23223.71321331  .00022797  00000+0  15430-2 0  9993
2 46061  53.0555  20.8252 0001174  77.4578 282.6542 15.06433683166676
STARLINK-1574           
1 46062U 20055AM  23223.94542204  .00021069  00000+0  14276-2 0  9991
2 46062  53.0546  19.7866 0001055 105.6297 254.4808 15.06438959166702
STARLINK-1577           
1 46063U 20055AN  23223.87539117  .00019356  00000+0  13136-2 0  9993
2 46063  53.0551  20.0961 0000989 104.3543 255.7555 15.06433595166697
STARLINK-1583           
1 46064U 20055AP  23223.70953638  .00022126  00000+0  14985-2 0  9996
2 46064  53.0547  20.8419 0001213  77.3084 282.8040 15.06427407166672
STARLINK-1515           
1 46065U 20055AQ  23223.76940797  .00019626  00000+0  13317-2 0  9994
2 46065  53.0557   0.5742 0001285  74.9251 285.1880 15.06430876166982
STARLINK-1525           
1 46066U 20055AR  23223.77404055  .00019285  00000+0  13090-2 0  9997
2 46066  53.0550   0.5517 0001343  85.3476 274.7666 15.06428936166953
STARLINK-1529           
1 46067U 20055AS  23223.77678164  .00020397  00000+0  13832-2 0  9992
2 46067  53.0541   0.5338 0001229  84.3761 275.7368 15.06429085166950
STARLINK-1532           
1 46068U 20055AT  23223.65514628  .00020441  00000+0  13862-2 0  9997
2 46068  53.0551   1.0753 0001188  75.0042 285.1078 15.06427177166933
STARLINK-1533           
1 46069U 20055AU  23224.06891005 -.00013255  00000+0 -87285-3 0  9999
2 46069  53.0550 359.2284 0001284  83.3247 276.7888 15.06390421167001
STARLINK-1536           
1 46070U 20055AV  23224.08365566  .00005004  00000+0  35452-3 0  9991
2 46070  53.0553 359.1605 0001648  72.1963 287.9206 15.06407908167004
STARLINK-1538           
1 46071U 20055AW  23223.10689332  .00020066  00000+0  13623-2 0  9994
2 46071  53.0548   3.5462 0001379  88.4451 271.6696 15.06395380166858
STARLINK-1539           
1 46072U 20055AX  23223.79520360  .00021547  00000+0  14596-2 0  9990
2 46072  53.0553   0.4561 0001104  82.4583 277.6532 15.06435540166956
STARLINK-1542           
1 46073U 20055AY  23224.07628912  .00001116  00000+0  93818-4 0  9991
2 46073  53.0548 359.1934 0001559  83.4274 276.6893 15.06402553167005
STARLINK-1549           
1 46074U 20055AZ  23223.79615373  .00021072  00000+0  14280-2 0  9994
2 46074  53.0558   0.4534 0001295  79.2984 280.8151 15.06434635166961
STARLINK-1551           
1 46075U 20055BA  23224.08734398  .00002570  00000+0  19135-3 0  9994
2 46075  53.0553 359.1429 0000966  93.9026 266.2074 15.06404651167001
STARLINK-1552           
1 46076U 20055BB  23222.78621734  .00023763  00000+0  16094-2 0  9996
2 46076  53.0540   4.9902 0001268  84.5916 275.5217 15.06387041166801
STARLINK-1559           
1 46077U 20055BC  23224.09470088  .00001014  00000+0  86898-4 0  9993
2 46077  53.0552 359.1113 0001028  99.4562 260.6544 15.06411856167003
STARLINK-1563           
1 46078U 20055BD  23224.07259892  .00011523  00000+0  79092-3 0  9993
2 46078  53.0552 359.2121 0001429  76.9586 283.1562 15.06414436167002
STARLINK-1566           
1 46079U 20055BE  23222.80464177  .00020300  00000+0  13781-2 0  9992
2 46079  53.0550   4.9036 0001077  69.2157 290.8947 15.06391799166814
STARLINK-1568           
1 46080U 20055BF  23224.09008321  .00002681  00000+0  19879-3 0  9999
2 46080  53.0563 359.1230 0001472  79.0388 281.0766 15.06401480167007
STARLINK-1571           
1 46081U 20055BG  23223.65976718  .00009245  00000+0  63838-3 0  9992
2 46081  53.0548   1.0673 0001208  84.3243 275.7883 15.06419750166931
STARLINK-1578           
1 46082U 20055BH  23224.07996851 -.00012232  00000+0 -80389-3 0  9992
2 46082  53.0560 359.1820 0000576 145.6281 214.4746 15.06391082167001
STARLINK-1579           
1 46083U 20055BJ  23223.65240629  .00022331  00000+0  15122-2 0  9992
2 46083  53.0536   1.1025 0001232  81.4878 278.6251 15.06427696166930
STARLINK-1585           
1 46117U 20057A   23224.08365255  .00001433  00000+0  11505-3 0  9995
2 46117  53.0512 199.1604 0002036  94.0056 266.1165 15.06406914165232
STARLINK-1588           
1 46118U 20057B   23223.29671116 -.00000495  00000+0 -14358-4 0  9993
2 46118  53.0531 222.6960 0001080  87.0129 273.0983 15.06393819164831
STARLINK-1593           
1 46119U 20057C   23224.01546026  .00001489  00000+0  11883-3 0  9997
2 46119  53.0533 219.4652 0001362  90.7874 269.3271 15.06412023164946
STARLINK-1601           
1 46120U 20057D   23224.00072366  .00003896  00000+0  28030-3 0  9995
2 46120  53.0512 219.5330 0001224  79.8278 280.2848 15.06401489164948
STARLINK-1602           
1 46121U 20057E   23224.10208120  .00001584  00000+0  12516-3 0  9990
2 46121  53.0521 199.0812 0001340  85.4904 274.6238 15.06405784165240
STARLINK-1604           
1 46122U 20057F   23224.11129591  .00013115  00000+0  89723-3 0  9993
2 46122  53.0521 179.0370 0001010 100.4832 259.6271 15.06418959165529
STARLINK-1605           
1 46123U 20057G   23224.03019951  .00003416  00000+0  24806-3 0  9997
2 46123  53.0535 179.4009 0001455  89.4325 270.6831 15.06410896165509
STARLINK-1614           
1 46124U 20057H   23224.10392390  .00013842  00000+0  94578-3 0  9994
2 46124  53.0527 179.0730 0001003  99.7331 260.3771 15.06421782165525
STARLINK-1618           
1 46125U 20057J   23223.02395356  .00001402  00000+0  11296-3 0  9995
2 46125  53.0506 223.9210 0001003  84.6053 275.5051 15.06397343164791
